******** Week 1019 almanac for PRN-21 ********
ID:                         21
Health:                     000
Eccentricity:               0.1530551910E-001
Time of Applicability(s):  503808.0000
Orbital Inclination(rad)    0.9709043776
Rate of Right Ascen(r/s):  -0.7714607059E-008
SQRT(A)  (m 1/2):           5153.645020
Right Ascen at Week(rad):   0.2233683130E+001
Argument of Perigee(rad):  -2.659926806
Mean Anom(rad):            -0.2941121288E+001
Af0(s):                     0.2479553223E-004
Af1(s/s):                   0.0000000000E+000
week:                       1019

******** Week 1019 almanac for PRN-22 ********
ID:                         22
Health:                     000
Eccentricity:               0.1209878922E-001
Time of Applicability(s):  503808.0000
Orbital Inclination(rad)    0.9351614268
Rate of Right Ascen(r/s):  -0.7966046104E-008
SQRT(A)  (m 1/2):           5153.638672
Right Ascen at Week(rad):  -0.9588608307E+000
Argument of Perigee(rad):   0.464348643
Mean Anom(rad):             0.2848428552E+001
Af0(s):                     0.4386901855E-003
Af1(s/s):                  -0.7275957614E-011
week:                       1019

******** Week 1019 almanac for PRN-23 ********
ID:                         23
Health:                     000
Eccentricity:               0.1388406754E-001
Time of Applicability(s):  503808.0000
Orbital Inclination(rad)    0.9739963076
Rate of Right Ascen(r/s):  -0.7691748964E-008
SQRT(A)  (m 1/2):           5153.628906
Right Ascen at Week(rad):   0.2273613818E+001
Argument of Perigee(rad):  -1.959581436
Mean Anom(rad):            -0.3043090564E+001
Af0(s):                     0.2861022949E-005
Af1(s/s):                   0.0000000000E+000
week:                       1019

******** Week 1019 almanac for PRN-24 ********
ID:                         24
Health:                     000
Eccentricity:               0.8521080017E-002
Time of Applicability(s):  503808.0000
Orbital Inclination(rad)    0.9872568524
Rate of Right Ascen(r/s):  -0.7897471819E-008
SQRT(A)  (m 1/2):           5153.570801
Right Ascen at Week(rad):   0.1211360959E+001
Argument of Perigee(rad):  -1.763689917
Mean Anom(rad):            -0.4553660918E+000
Af0(s):                     0.5912780762E-003
Af1(s/s):                   0.0000000000E+000
week:                       1019

******** Week 1019 almanac for PRN-25 ********
ID:                         25
Health:                     000
Eccentricity:               0.7674217224E-002
Time of Applicability(s):  503808.0000
Orbital Inclination(rad)    0.9360602436
Rate of Right Ascen(r/s):  -0.8194627053E-008
SQRT(A)  (m 1/2):           5153.726074
Right Ascen at Week(rad):  -0.2011074654E+001
Argument of Perigee(rad):  -2.280140726
Mean Anom(rad):             0.6168089560E+000
Af0(s):                     0.1907348633E-005
Af1(s/s):                   0.0000000000E+000
week:                       1019

******** Week 1019 almanac for PRN-26 ********
ID:                         26
Health:                     000
Eccentricity:               0.1143455505E-001
Time of Applicability(s):  503808.0000
Orbital Inclination(rad)    0.9615267216
Rate of Right Ascen(r/s):  -0.7760323249E-008
SQRT(A)  (m 1/2):           5153.576172
Right Ascen at Week(rad):  -0.3001670087E+001
Argument of Perigee(rad):  -0.039182423
Mean Anom(rad):             0.1557853738E+001
Af0(s):                     0.6542205811E-003
Af1(s/s):                   0.1091393642E-010
week:                       1019

******** Week 1019 almanac for PRN-27 ********
ID:                         27
Health:                     000
Eccentricity:               0.1347303391E-001
Time of Applicability(s):  503808.0000
Orbital Inclination(rad)    0.9404225015
Rate of Right Ascen(r/s):  -0.8148910863E-008
SQRT(A)  (m 1/2):           5153.552734
Right Ascen at Week(rad):  -0.1991135525E+001
Argument of Perigee(rad):  -2.877283195
Mean Anom(rad):            -0.1430667781E+001
Af0(s):                     0.2670288086E-004
Af1(s/s):                   0.0000000000E+000
week:                       1019

******** Week 1019 almanac for PRN-29 ********
ID:                         29
Health:                     000
Eccentricity:               0.6915092468E-002
Time of Applicability(s):  503808.0000
Orbital Inclination(rad)    0.9581891149
Rate of Right Ascen(r/s):  -0.7828897534E-008
SQRT(A)  (m 1/2):           5153.517578
Right Ascen at Week(rad):  -0.3029040558E+001
Argument of Perigee(rad):  -1.958040339
Mean Anom(rad):             0.1686025024E+001
Af0(s):                     0.5168914795E-003
Af1(s/s):                   0.3637978807E-011
week:                       1019

******** Week 1019 almanac for PRN-30 ********
ID:                         30
Health:                     000
Eccentricity:               0.5146026611E-002
Time of Applicability(s):  503808.0000
Orbital Inclination(rad)    0.9456835762
Rate of Right Ascen(r/s):  -0.7897471819E-008
SQRT(A)  (m 1/2):           5153.538574
Right Ascen at Week(rad):  -0.9253173597E+000
Argument of Perigee(rad):   1.527697309
Mean Anom(rad):            -0.3022352986E+001
Af0(s):                    -0.2574920654E-004
Af1(s/s):                   0.0000000000E+000
week:                       1019

******** Week 1019 almanac for PRN-31 ********
ID:                         31
Health:                     000
Eccentricity:               0.8871078491E-002
Time of Applicability(s):  503808.0000
Orbital Inclination(rad)    0.9541204706
Rate of Right Ascen(r/s):  -0.7988904198E-008
SQRT(A)  (m 1/2):           5153.714844
Right Ascen at Week(rad):   0.1175510151E+000
Argument of Perigee(rad):   0.800382939
Mean Anom(rad):             0.5919821361E+000
Af0(s):                     0.2193450928E-004
Af1(s/s):                   0.0000000000E+000
week:                       1019

